{
  "norad_id": 58272,
  "name": "TIGER-6",
  "history": [
    {
      "epoch": "2026-05-04T18:19:42.807360Z",
      "apogee_km": 312.33508636522765,
      "perigee_km": 304.01597631373534,
      "latitude_deg": -5.597453457429267e-05,
      "longitude_deg": 84.13389076782937,
      "height_km": 312.1439842035417,
      "semi_major_axis_km": 6686.312531339481,
      "eccentricity": 0.0006221,
      "inclination_deg": 97.3843,
      "raan_deg": 221.7106,
      "arg_perigee_deg": 259.2021,
      "mean_anomaly_deg": 100.855,
      "mean_motion_rev_day": 15.87898554
    },
    {
      "epoch": "2026-05-05T18:31:20.356032Z",
      "apogee_km": 310.54445538032087,
      "perigee_km": 301.93364215429847,
      "latitude_deg": -2.80875174436642e-05,
      "longitude_deg": 81.32742799196642,
      "height_km": 310.37828594477463,
      "semi_major_axis_km": 6684.37604876731,
      "eccentricity": 0.0006441,
      "inclination_deg": 97.3838,
      "raan_deg": 222.8042,
      "arg_perigee_deg": 257.2667,
      "mean_anomaly_deg": 102.7885,
      "mean_motion_rev_day": 15.88588632
    },
    {
      "epoch": "2026-05-06T18:42:24.563808Z",
      "apogee_km": 309.17541558131506,
      "perigee_km": 300.2631584369592,
      "latitude_deg": 5.400809969145473e-05,
      "longitude_deg": 78.66005894986321,
      "height_km": 308.996152521062,
      "semi_major_axis_km": 6682.856287009136,
      "eccentricity": 0.0006668,
      "inclination_deg": 97.3829,
      "raan_deg": 223.8976,
      "arg_perigee_deg": 255.8984,
      "mean_anomaly_deg": 104.1548,
      "mean_motion_rev_day": 15.89130559
    },
    {
      "epoch": "2026-05-07T18:53:01.388832Z",
      "apogee_km": 307.89392846945975,
      "perigee_km": 298.81244700628577,
      "latitude_deg": -3.379165454970889e-05,
      "longitude_deg": 76.10861927077772,
      "height_km": 307.7578824094083,
      "semi_major_axis_km": 6681.4901877378725,
      "eccentricity": 0.0006796,
      "inclination_deg": 97.3838,
      "raan_deg": 224.9925,
      "arg_perigee_deg": 254.5084,
      "mean_anomaly_deg": 105.5438,
      "mean_motion_rev_day": 15.89617955
    },
    {
      "epoch": "2026-05-08T17:32:32.390016Z",
      "apogee_km": 306.4710755169717,
      "perigee_km": 297.2326509191407,
      "latitude_deg": -6.897995861781352e-05,
      "longitude_deg": 96.32429330092583,
      "height_km": 306.3632155132351,
      "semi_major_axis_km": 6679.9888632180555,
      "eccentricity": 0.0006915,
      "inclination_deg": 97.3829,
      "raan_deg": 226.0179,
      "arg_perigee_deg": 253.4129,
      "mean_anomaly_deg": 106.6384,
      "mean_motion_rev_day": 15.90153884
    }
  ]
}